[
  {
    "OBJECT_NAME": "STARLINK-33836",
    "OBJECT_ID": "25083J",
    "EPOCH": "2025-11-11T06:34:00.268608",
    "MEAN_MOTION": 15.27620708,
    "ECCENTRICITY": 0.0002534,
    "INCLINATION": 43.0062,
    "RA_OF_ASC_NODE": 314.2301,
    "ARG_OF_PERICENTER": 277.9247,
    "MEAN_ANOMALY": 82.1317,
    "EPHEMERIS_TYPE": 0,
    "CLASSIFICATION_TYPE": "U",
    "NORAD_CAT_ID": 63642,
    "ELEMENT_SET_NO": 999,
    "REV_AT_EPOCH": 3195,
    "BSTAR": 0.0017624000000000001,
    "MEAN_MOTION_DOT": 0.00048619,
    "MEAN_MOTION_DDOT": 0.0,
    "TLE_LINE1": "1 63642U 25083J   25315.27361422  .00048619  00000+0  17624-2 0  9991",
    "TLE_LINE2": "2 63642  43.0062 314.2301 0002534 277.9247  82.1317 15.27620708 31952",
    "COMMENT": "Grouped by shell and plane from TLE"
  },
  {
    "OBJECT_NAME": "STARLINK-33558",
    "OBJECT_ID": "25083K",
    "EPOCH": "2025-11-11T07:10:48.183456",
    "MEAN_MOTION": 15.27602161,
    "ECCENTRICITY": 0.0001161,
    "INCLINATION": 43.0015,
    "RA_OF_ASC_NODE": 313.552,
    "ARG_OF_PERICENTER": 271.9044,
    "MEAN_ANOMALY": 88.1675,
    "EPHEMERIS_TYPE": 0,
    "CLASSIFICATION_TYPE": "U",
    "NORAD_CAT_ID": 63643,
    "ELEMENT_SET_NO": 999,
    "REV_AT_EPOCH": 3196,
    "BSTAR": 0.0014469,
    "MEAN_MOTION_DOT": 0.00039797,
    "MEAN_MOTION_DDOT": 0.0,
    "TLE_LINE1": "1 63643U 25083K   25315.29916879  .00039797  00000+0  14469-2 0  9997",
    "TLE_LINE2": "2 63643  43.0015 313.5520 0001161 271.9044  88.1675 15.27602161 31967",
    "COMMENT": "Grouped by shell and plane from TLE"
  },
  {
    "OBJECT_NAME": "STARLINK-33852",
    "OBJECT_ID": "25083L",
    "EPOCH": "2025-11-11T06:32:09.126240",
    "MEAN_MOTION": 15.27616619,
    "ECCENTRICITY": 0.0001593,
    "INCLINATION": 43.0044,
    "RA_OF_ASC_NODE": 314.2174,
    "ARG_OF_PERICENTER": 259.5686,
    "MEAN_ANOMALY": 100.4986,
    "EPHEMERIS_TYPE": 0,
    "CLASSIFICATION_TYPE": "U",
    "NORAD_CAT_ID": 63644,
    "ELEMENT_SET_NO": 999,
    "REV_AT_EPOCH": 3198,
    "BSTAR": 0.0014316,
    "MEAN_MOTION_DOT": 0.00039388,
    "MEAN_MOTION_DDOT": 0.0,
    "TLE_LINE1": "1 63644U 25083L   25315.27232785  .00039388  00000+0  14316-2 0  9990",
    "TLE_LINE2": "2 63644  43.0044 314.2174 0001593 259.5686 100.4986 15.27616619 31984",
    "COMMENT": "Grouped by shell and plane from TLE"
  },
  {
    "OBJECT_NAME": "STARLINK-33835",
    "OBJECT_ID": "25083M",
    "EPOCH": "2025-11-11T01:31:10.907616",
    "MEAN_MOTION": 15.27602473,
    "ECCENTRICITY": 0.0001222,
    "INCLINATION": 43.003,
    "RA_OF_ASC_NODE": 315.2199,
    "ARG_OF_PERICENTER": 242.8982,
    "MEAN_ANOMALY": 117.1745,
    "EPHEMERIS_TYPE": 0,
    "CLASSIFICATION_TYPE": "U",
    "NORAD_CAT_ID": 63645,
    "ELEMENT_SET_NO": 999,
    "REV_AT_EPOCH": 3195,
    "BSTAR": 0.0013747000000000002,
    "MEAN_MOTION_DOT": 0.00037787,
    "MEAN_MOTION_DDOT": 0.0,
    "TLE_LINE1": "1 63645U 25083M   25315.06332069  .00037787  00000+0  13747-2 0  9992",
    "TLE_LINE2": "2 63645  43.0030 315.2199 0001222 242.8982 117.1745 15.27602473 31959",
    "COMMENT": "Grouped by shell and plane from TLE"
  },
  {
    "OBJECT_NAME": "STARLINK-33661",
    "OBJECT_ID": "25083N",
    "EPOCH": "2025-11-11T07:27:26.834400",
    "MEAN_MOTION": 15.27615349,
    "ECCENTRICITY": 0.0001165,
    "INCLINATION": 43.0036,
    "RA_OF_ASC_NODE": 313.6314,
    "ARG_OF_PERICENTER": 264.6566,
    "MEAN_ANOMALY": 95.4153,
    "EPHEMERIS_TYPE": 0,
    "CLASSIFICATION_TYPE": "U",
    "NORAD_CAT_ID": 63646,
    "ELEMENT_SET_NO": 999,
    "REV_AT_EPOCH": 3199,
    "BSTAR": 0.0016308,
    "MEAN_MOTION_DOT": 0.00044937,
    "MEAN_MOTION_DDOT": 0.0,
    "TLE_LINE1": "1 63646U 25083N   25315.31072725  .00044937  00000+0  16308-2 0  9992",
    "TLE_LINE2": "2 63646  43.0036 313.6314 0001165 264.6566  95.4153 15.27615349 31994",
    "COMMENT": "Grouped by shell and plane from TLE"
  },
  {
    "OBJECT_NAME": "STARLINK-33729",
    "OBJECT_ID": "25083P",
    "EPOCH": "2025-11-11T00:24:47.094336",
    "MEAN_MOTION": 15.27602369,
    "ECCENTRICITY": 0.0001752,
    "INCLINATION": 43.0014,
    "RA_OF_ASC_NODE": 315.7411,
    "ARG_OF_PERICENTER": 275.8348,
    "MEAN_ANOMALY": 84.2304,
    "EPHEMERIS_TYPE": 0,
    "CLASSIFICATION_TYPE": "U",
    "NORAD_CAT_ID": 63647,
    "ELEMENT_SET_NO": 999,
    "REV_AT_EPOCH": 3191,
    "BSTAR": 0.001177,
    "MEAN_MOTION_DOT": 0.00032291,
    "MEAN_MOTION_DDOT": 0.0,
    "TLE_LINE1": "1 63647U 25083P   25315.01721174  .00032291  00000+0  11770-2 0  9997",
    "TLE_LINE2": "2 63647  43.0014 315.7411 0001752 275.8348  84.2304 15.27602369 31910",
    "COMMENT": "Grouped by shell and plane from TLE"
  },
  {
    "OBJECT_NAME": "STARLINK-33717",
    "OBJECT_ID": "25083Q",
    "EPOCH": "2025-11-11T07:14:29.738112",
    "MEAN_MOTION": 15.27615124,
    "ECCENTRICITY": 0.0001119,
    "INCLINATION": 43.0039,
    "RA_OF_ASC_NODE": 313.5704,
    "ARG_OF_PERICENTER": 270.7646,
    "MEAN_ANOMALY": 89.3078,
    "EPHEMERIS_TYPE": 0,
    "CLASSIFICATION_TYPE": "U",
    "NORAD_CAT_ID": 63648,
    "ELEMENT_SET_NO": 999,
    "REV_AT_EPOCH": 3196,
    "BSTAR": 0.0015419,
    "MEAN_MOTION_DOT": 0.00042458,
    "MEAN_MOTION_DDOT": 0.0,
    "TLE_LINE1": "1 63648U 25083Q   25315.30173308  .00042458  00000+0  15419-2 0  9990",
    "TLE_LINE2": "2 63648  43.0039 313.5704 0001119 270.7646  89.3078 15.27615124 31963",
    "COMMENT": "Grouped by shell and plane from TLE"
  },
  {
    "OBJECT_NAME": "STARLINK-33684",
    "OBJECT_ID": "25083R",
    "EPOCH": "2025-11-11T07:03:23.758272",
    "MEAN_MOTION": 15.27613906,
    "ECCENTRICITY": 7.04e-05,
    "INCLINATION": 43.0023,
    "RA_OF_ASC_NODE": 313.5129,
    "ARG_OF_PERICENTER": 229.7096,
    "MEAN_ANOMALY": 130.3694,
    "EPHEMERIS_TYPE": 0,
    "CLASSIFICATION_TYPE": "U",
    "NORAD_CAT_ID": 63649,
    "ELEMENT_SET_NO": 999,
    "REV_AT_EPOCH": 3196,
    "BSTAR": 0.0015392000000000001,
    "MEAN_MOTION_DOT": 0.00042381,
    "MEAN_MOTION_DDOT": 0.0,
    "TLE_LINE1": "1 63649U 25083R   25315.29402498  .00042381  00000+0  15392-2 0  9999",
    "TLE_LINE2": "2 63649  43.0023 313.5129 0000704 229.7096 130.3694 15.27613906 31967",
    "COMMENT": "Grouped by shell and plane from TLE"
  },
  {
    "OBJECT_NAME": "STARLINK-33704",
    "OBJECT_ID": "25083S",
    "EPOCH": "2025-11-11T01:18:13.982400",
    "MEAN_MOTION": 15.27619628,
    "ECCENTRICITY": 7.83e-05,
    "INCLINATION": 43.0026,
    "RA_OF_ASC_NODE": 315.1522,
    "ARG_OF_PERICENTER": 206.5934,
    "MEAN_ANOMALY": 153.4877,
    "EPHEMERIS_TYPE": 0,
    "CLASSIFICATION_TYPE": "U",
    "NORAD_CAT_ID": 63650,
    "ELEMENT_SET_NO": 999,
    "REV_AT_EPOCH": 3192,
    "BSTAR": 0.0014552,
    "MEAN_MOTION_DOT": 0.00040049,
    "MEAN_MOTION_DDOT": 0.0,
    "TLE_LINE1": "1 63650U 25083S   25315.05432850  .00040049  00000+0  14552-2 0  9996",
    "TLE_LINE2": "2 63650  43.0026 315.1522 0000783 206.5934 153.4877 15.27619628 31920",
    "COMMENT": "Grouped by shell and plane from TLE"
  },
  {
    "OBJECT_NAME": "STARLINK-33705",
    "OBJECT_ID": "25083T",
    "EPOCH": "2025-11-11T07:29:17.800512",
    "MEAN_MOTION": 15.27618332,
    "ECCENTRICITY": 0.0001131,
    "INCLINATION": 43.0035,
    "RA_OF_ASC_NODE": 313.6395,
    "ARG_OF_PERICENTER": 255.8084,
    "MEAN_ANOMALY": 104.2643,
    "EPHEMERIS_TYPE": 0,
    "CLASSIFICATION_TYPE": "U",
    "NORAD_CAT_ID": 63651,
    "ELEMENT_SET_NO": 999,
    "REV_AT_EPOCH": 3199,
    "BSTAR": 0.0017674000000000001,
    "MEAN_MOTION_DOT": 0.00048752,
    "MEAN_MOTION_DDOT": 0.0,
    "TLE_LINE1": "1 63651U 25083T   25315.31201158  .00048752  00000+0  17674-2 0  9998",
    "TLE_LINE2": "2 63651  43.0035 313.6395 0001131 255.8084 104.2643 15.27618332 31996",
    "COMMENT": "Grouped by shell and plane from TLE"
  },
  {
    "OBJECT_NAME": "STARLINK-33663",
    "OBJECT_ID": "25083U",
    "EPOCH": "2025-11-11T01:01:34.412160",
    "MEAN_MOTION": 15.27627572,
    "ECCENTRICITY": 0.000117,
    "INCLINATION": 43.0024,
    "RA_OF_ASC_NODE": 315.056,
    "ARG_OF_PERICENTER": 173.3672,
    "MEAN_ANOMALY": 186.7196,
    "EPHEMERIS_TYPE": 0,
    "CLASSIFICATION_TYPE": "U",
    "NORAD_CAT_ID": 63652,
    "ELEMENT_SET_NO": 999,
    "REV_AT_EPOCH": 3192,
    "BSTAR": 0.0015254,
    "MEAN_MOTION_DOT": 0.00042015,
    "MEAN_MOTION_DDOT": 0.0,
    "TLE_LINE1": "1 63652U 25083U   25315.04275940  .00042015  00000+0  15254-2 0  9997",
    "TLE_LINE2": "2 63652  43.0024 315.0560 0001170 173.3672 186.7196 15.27627572 31922",
    "COMMENT": "Grouped by shell and plane from TLE"
  },
  {
    "OBJECT_NAME": "STARLINK-33866",
    "OBJECT_ID": "25083V",
    "EPOCH": "2025-11-11T06:28:27.052320",
    "MEAN_MOTION": 15.27613166,
    "ECCENTRICITY": 0.0001254,
    "INCLINATION": 43.0043,
    "RA_OF_ASC_NODE": 314.1939,
    "ARG_OF_PERICENTER": 262.9025,
    "MEAN_ANOMALY": 97.1684,
    "EPHEMERIS_TYPE": 0,
    "CLASSIFICATION_TYPE": "U",
    "NORAD_CAT_ID": 63653,
    "ELEMENT_SET_NO": 999,
    "REV_AT_EPOCH": 3198,
    "BSTAR": 0.0014027999999999998,
    "MEAN_MOTION_DOT": 0.00038582,
    "MEAN_MOTION_DDOT": 0.0,
    "TLE_LINE1": "1 63653U 25083V   25315.26975755  .00038582  00000+0  14028-2 0  9995",
    "TLE_LINE2": "2 63653  43.0043 314.1939 0001254 262.9025  97.1684 15.27613166 31981",
    "COMMENT": "Grouped by shell and plane from TLE"
  },
  {
    "OBJECT_NAME": "STARLINK-33849",
    "OBJECT_ID": "25083W",
    "EPOCH": "2025-11-11T00:08:07.836000",
    "MEAN_MOTION": 15.27622518,
    "ECCENTRICITY": 0.0001264,
    "INCLINATION": 43.0012,
    "RA_OF_ASC_NODE": 315.65,
    "ARG_OF_PERICENTER": 266.1517,
    "MEAN_ANOMALY": 93.919,
    "EPHEMERIS_TYPE": 0,
    "CLASSIFICATION_TYPE": "U",
    "NORAD_CAT_ID": 63654,
    "ELEMENT_SET_NO": 999,
    "REV_AT_EPOCH": 3191,
    "BSTAR": 0.0019608,
    "MEAN_MOTION_DOT": 0.00054162,
    "MEAN_MOTION_DDOT": 0.0,
    "TLE_LINE1": "1 63654U 25083W   25315.00564625  .00054162  00000+0  19608-2 0  9999",
    "TLE_LINE2": "2 63654  43.0012 315.6500 0001264 266.1517  93.9190 15.27622518 31911",
    "COMMENT": "Grouped by shell and plane from TLE"
  }
]